[{"OBJECT_NAME":"STARLINK-34663","OBJECT_ID":"2025-150T","EPOCH":"2026-03-09T14:35:13.289280","MEAN_MOTION":14.98334733,"ECCENTRICITY":0.0003609,"INCLINATION":70.0019,"RA_OF_ASC_NODE":134.7012,"ARG_OF_PERICENTER":271.2876,"MEAN_ANOMALY":88.7869,"EPHEMERIS_TYPE":0,"CLASSIFICATION_TYPE":"U","NORAD_CAT_ID":64807,"ELEMENT_SET_NO":999,"REV_AT_EPOCH":3650,"BSTAR":0.0001693,"MEAN_MOTION_DOT":1.928e-5,"MEAN_MOTION_DDOT":0},{"OBJECT_NAME":"BREEZE-KM R\/B","OBJECT_ID":"2016-011B","EPOCH":"2026-03-09T13:46:31.765728","MEAN_MOTION":15.28220455,"ECCENTRICITY":0.0143188,"INCLINATION":98.6722,"RA_OF_ASC_NODE":284.67,"ARG_OF_PERICENTER":63.2473,"MEAN_ANOMALY":298.3333,"EPHEMERIS_TYPE":0,"CLASSIFICATION_TYPE":"U","NORAD_CAT_ID":41336,"ELEMENT_SET_NO":999,"REV_AT_EPOCH":55224,"BSTAR":0.00023628,"MEAN_MOTION_DOT":8.734e-5,"MEAN_MOTION_DDOT":0}]
